start=new Date('2022-06-23T00:00:00.000Z').valueOf();
sats=[{"SITE":"AFETR","REV_AT_EPOCH":"6831","OBJECT_ID":"2021-027AL","SEMIMAJOR_AXIS":"6925.375","DECAY_DATE":null,"TLE_LINE2":"2 48126  53.0552 119.2479 0001603  63.6438 296.4715 15.06391216 68312","TLE_LINE1":"1 48126U 21027AL  22173.61977549  .00000037  00000-0  21410-4 0  9998","TIME_SYSTEM":"UTC","GP_ID":"206647859","EPHEMERIS_TYPE":"0","MEAN_MOTION_DDOT":"0.0000000000000","OBJECT_TYPE":"PAYLOAD","NORAD_CAT_ID":"48126","REF_FRAME":"TEME","ELEMENT_SET_NO":"999","MEAN_ANOMALY":"296.4715","BSTAR":"0.00002141000000","RA_OF_ASC_NODE":"119.2479","MEAN_MOTION_DOT":"0.00000037","APOAPSIS":"548.351","COUNTRY_CODE":"US","PERIAPSIS":"546.130","EPOCH":"2022-06-22T14:52:28.602336","MEAN_ELEMENT_THEORY":"SGP4","PERIOD":"95.593","INCLINATION":"53.0552","CLASSIFICATION_TYPE":"U","FILE":"3500001","ECCENTRICITY":"0.00016030","ARG_OF_PERICENTER":"63.6438","LAUNCH_DATE":"2021-04-07","MEAN_MOTION":"15.06391216","CENTER_NAME":"EARTH","RCS_SIZE":"LARGE","OBJECT_NAME":"STARLINK-2467"},{"TIME_SYSTEM":"UTC","EPHEMERIS_TYPE":"0","GP_ID":"206618728","TLE_LINE2":"2 48127  53.0549 140.4948 0002365  54.9363 305.1847 15.06392561 67982","TLE_LINE1":"1 48127U 21027AM  22173.34517240  .00000590  00000-0  58509-4 0  9990","OBJECT_TYPE":"PAYLOAD","NORAD_CAT_ID":"48127","MEAN_MOTION_DDOT":"0.0000000000000","SITE":"AFETR","OBJECT_ID":"2021-027AM","SEMIMAJOR_AXIS":"6925.371","DECAY_DATE":null,"REV_AT_EPOCH":"6798","CLASSIFICATION_TYPE":"U","FILE":"3499789","ECCENTRICITY":"0.00023650","INCLINATION":"53.0549","PERIOD":"95.593","CENTER_NAME":"EARTH","MEAN_MOTION":"15.06392561","RCS_SIZE":"LARGE","OBJECT_NAME":"STARLINK-2468","ARG_OF_PERICENTER":"54.9363","LAUNCH_DATE":"2021-04-07","MEAN_ANOMALY":"305.1847","REF_FRAME":"TEME","ELEMENT_SET_NO":"999","BSTAR":"0.00005850900000","RA_OF_ASC_NODE":"140.4948","EPOCH":"2022-06-22T08:17:02.895360","COUNTRY_CODE":"US","PERIAPSIS":"545.599","MEAN_ELEMENT_THEORY":"SGP4","MEAN_MOTION_DOT":"0.00000590","APOAPSIS":"548.874"},{"RA_OF_ASC_NODE":"69.1742","BSTAR":"0.00004054700000","ELEMENT_SET_NO":"999","REF_FRAME":"TEME","MEAN_ANOMALY":"284.8239","APOAPSIS":"548.329","MEAN_MOTION_DOT":"0.00000322","MEAN_ELEMENT_THEORY":"SGP4","COUNTRY_CODE":"US","PERIAPSIS":"546.165","EPOCH":"2022-06-22T15:46:54.234624","PERIOD":"95.593","INCLINATION":"53.0552","ECCENTRICITY":"0.00015630","CLASSIFICATION_TYPE":"U","FILE":"3500001","LAUNCH_DATE":"2021-04-07","ARG_OF_PERICENTER":"75.2923","OBJECT_NAME":"STARLINK-2469","RCS_SIZE":"LARGE","CENTER_NAME":"EARTH","MEAN_MOTION":"15.06389098","SITE":"AFETR","REV_AT_EPOCH":"6900","SEMIMAJOR_AXIS":"6925.382","DECAY_DATE":null,"OBJECT_ID":"2021-027AN","TLE_LINE1":"1 48128U 21027AN  22173.65757216  .00000322  00000-0  40547-4 0  9990","TLE_LINE2":"2 48128  53.0552  69.1742 0001563  75.2923 284.8239 15.06389098 69007","GP_ID":"206648360","EPHEMERIS_TYPE":"0","TIME_SYSTEM":"UTC","MEAN_MOTION_DDOT":"0.0000000000000","NORAD_CAT_ID":"48128","OBJECT_TYPE":"PAYLOAD"},{"CLASSIFICATION_TYPE":"U","FILE":"3499789","ECCENTRICITY":"0.00017850","INCLINATION":"53.0544","PERIOD":"95.592","CENTER_NAME":"EARTH","MEAN_MOTION":"15.06395127","RCS_SIZE":"LARGE","OBJECT_NAME":"STARLINK-2471","ARG_OF_PERICENTER":"56.2989","LAUNCH_DATE":"2021-04-07","MEAN_ANOMALY":"303.8170","ELEMENT_SET_NO":"999","REF_FRAME":"TEME","BSTAR":"0.00007776500000","RA_OF_ASC_NODE":"140.5251","EPOCH":"2022-06-22T08:06:25.850880","PERIAPSIS":"545.992","COUNTRY_CODE":"US","MEAN_ELEMENT_THEORY":"SGP4","MEAN_MOTION_DOT":"0.00000877","APOAPSIS":"548.465","TIME_SYSTEM":"UTC","GP_ID":"206619216","EPHEMERIS_TYPE":"0","TLE_LINE2":"2 48129  53.0544 140.5251 0001785  56.2989 303.8170 15.06395127 67986","TLE_LINE1":"1 48129U 21027AP  22173.33779920  .00000877  00000-0  77765-4 0  9999","OBJECT_TYPE":"PAYLOAD","NORAD_CAT_ID":"48129","MEAN_MOTION_DDOT":"0.0000000000000","SITE":"AFETR","OBJECT_ID":"2021-027AP","SEMIMAJOR_AXIS":"6925.363","DECAY_DATE":null,"REV_AT_EPOCH":"6798"},{"RCS_SIZE":"LARGE","OBJECT_NAME":"STARLINK-2472","CENTER_NAME":"EARTH","MEAN_MOTION":"15.06405576","LAUNCH_DATE":"2021-04-07","ARG_OF_PERICENTER":"57.9967","ECCENTRICITY":"0.00016610","FILE":"3500001","CLASSIFICATION_TYPE":"U","INCLINATION":"53.0543","PERIOD":"95.592","MEAN_ELEMENT_THEORY":"SGP4","EPOCH":"2022-06-22T15:48:49.475808","COUNTRY_CODE":"US","PERIAPSIS":"546.046","APOAPSIS":"548.347","MEAN_MOTION_DOT":"0.00000353","BSTAR":"0.00004258500000","RA_OF_ASC_NODE":"144.0819","MEAN_ANOMALY":"302.1183","REF_FRAME":"TEME","ELEMENT_SET_NO":"999","NORAD_CAT_ID":"48130","OBJECT_TYPE":"PAYLOAD","MEAN_MOTION_DDOT":"0.0000000000000","EPHEMERIS_TYPE":"0","GP_ID":"206647360","TIME_SYSTEM":"UTC","TLE_LINE1":"1 48130U 21027AQ  22173.65890597  .00000353  00000-0  42585-4 0  9991","TLE_LINE2":"2 48130  53.0543 144.0819 0001661  57.9967 302.1183 15.06405576 67967","DECAY_DATE":null,"SEMIMAJOR_AXIS":"6925.331","OBJECT_ID":"2021-027AQ","REV_AT_EPOCH":"6796","SITE":"AFETR"},{"CENTER_NAME":"EARTH","MEAN_MOTION":"15.06395186","OBJECT_NAME":"STARLINK-2473","RCS_SIZE":"LARGE","ARG_OF_PERICENTER":"61.2779","LAUNCH_DATE":"2021-04-07","CLASSIFICATION_TYPE":"U","FILE":"3499789","ECCENTRICITY":"0.00015330","PERIOD":"95.592","INCLINATION":"53.0544","COUNTRY_CODE":"US","PERIAPSIS":"546.167","EPOCH":"2022-06-22T13:06:18.932544","MEAN_ELEMENT_THEORY":"SGP4","MEAN_MOTION_DOT":"-0.00000124","APOAPSIS":"548.290","ELEMENT_SET_NO":"999","REF_FRAME":"TEME","MEAN_ANOMALY":"298.8364","BSTAR":"0.00001060500000","RA_OF_ASC_NODE":"119.5768","OBJECT_TYPE":"PAYLOAD","NORAD_CAT_ID":"48131","MEAN_MOTION_DDOT":"0.0000000000000","TIME_SYSTEM":"UTC","GP_ID":"206618228","EPHEMERIS_TYPE":"0","TLE_LINE2":"2 48131  53.0544 119.5768 0001533  61.2779 298.8364 15.06395186 68290","TLE_LINE1":"1 48131U 21027AR  22173.54605246 -.00000124  00000-0  10605-4 0  9990","OBJECT_ID":"2021-027AR","SEMIMAJOR_AXIS":"6925.363","DECAY_DATE":null,"REV_AT_EPOCH":"6829","SITE":"AFETR"},{"MEAN_ANOMALY":"296.4134","ELEMENT_SET_NO":"999","REF_FRAME":"TEME","BSTAR":"-0.00000968990000","RA_OF_ASC_NODE":"140.5809","MEAN_MOTION_DOT":"-0.00000426","APOAPSIS":"548.363","EPOCH":"2022-06-22T07:50:30.374880","PERIAPSIS":"546.068","COUNTRY_CODE":"US","MEAN_ELEMENT_THEORY":"SGP4","INCLINATION":"53.0551","PERIOD":"95.592","FILE":"3499789","CLASSIFICATION_TYPE":"U","ECCENTRICITY":"0.00016570","ARG_OF_PERICENTER":"63.7025","LAUNCH_DATE":"2021-04-07","MEAN_MOTION":"15.06399384","CENTER_NAME":"EARTH","OBJECT_NAME":"STARLINK-2474","RCS_SIZE":"LARGE","SITE":"AFETR","REV_AT_EPOCH":"6797","OBJECT_ID":"2021-027AS","DECAY_DATE":null,"SEMIMAJOR_AXIS":"6925.350","TLE_LINE2":"2 48132  53.0551 140.5809 0001657  63.7025 296.4134 15.06399384 67974","TLE_LINE1":"1 48132U 21027AS  22173.32674045 -.00000426  00000-0 -96899-5 0  9996","TIME_SYSTEM":"UTC","GP_ID":"206619480","EPHEMERIS_TYPE":"0","MEAN_MOTION_DDOT":"0.0000000000000","OBJECT_TYPE":"PAYLOAD","NORAD_CAT_ID":"48132"},{"REF_FRAME":"TEME","ELEMENT_SET_NO":"999","MEAN_ANOMALY":"295.9703","RA_OF_ASC_NODE":"138.8098","BSTAR":"0.00005564000000","COUNTRY_CODE":"US","PERIAPSIS":"545.999","EPOCH":"2022-06-22T17:18:25.924032","MEAN_ELEMENT_THEORY":"SGP4","MEAN_MOTION_DOT":"0.00000547","APOAPSIS":"548.441","FILE":"3500001","CLASSIFICATION_TYPE":"U","ECCENTRICITY":"0.00017630","PERIOD":"95.592","INCLINATION":"53.0543","MEAN_MOTION":"15.06397976","CENTER_NAME":"EARTH","RCS_SIZE":"LARGE","OBJECT_NAME":"STARLINK-2475","ARG_OF_PERICENTER":"64.1467","LAUNCH_DATE":"2021-04-07","SITE":"AFETR","OBJECT_ID":"2021-027AT","DECAY_DATE":null,"SEMIMAJOR_AXIS":"6925.355","REV_AT_EPOCH":"6804","TIME_SYSTEM":"UTC","GP_ID":"206648611","EPHEMERIS_TYPE":"0","TLE_LINE2":"2 48133  53.0543 138.8098 0001763  64.1467 295.9703 15.06397976 68049","TLE_LINE1":"1 48133U 21027AT  22173.72113338  .00000547  00000-0  55640-4 0  9994","OBJECT_TYPE":"PAYLOAD","NORAD_CAT_ID":"48133","MEAN_MOTION_DDOT":"0.0000000000000"},{"TLE_LINE1":"1 48134U 21027AU  22173.64004394  .00003132  00000-0  22907-3 0  9999","TLE_LINE2":"2 48134  53.0547 139.1693 0001840  65.7473 294.3708 15.06404659 68022","GP_ID":"206647860","EPHEMERIS_TYPE":"0","TIME_SYSTEM":"UTC","MEAN_MOTION_DDOT":"0.0000000000000","NORAD_CAT_ID":"48134","OBJECT_TYPE":"PAYLOAD","SITE":"AFETR","REV_AT_EPOCH":"6802","DECAY_DATE":null,"SEMIMAJOR_AXIS":"6925.334","OBJECT_ID":"2021-027AU","INCLINATION":"53.0547","PERIOD":"95.592","ECCENTRICITY":"0.00018400","FILE":"3500001","CLASSIFICATION_TYPE":"U","LAUNCH_DATE":"2021-04-07","ARG_OF_PERICENTER":"65.7473","RCS_SIZE":"LARGE","OBJECT_NAME":"STARLINK-2476","MEAN_MOTION":"15.06404659","CENTER_NAME":"EARTH","BSTAR":"0.00022907000000","RA_OF_ASC_NODE":"139.1693","MEAN_ANOMALY":"294.3708","REF_FRAME":"TEME","ELEMENT_SET_NO":"999","APOAPSIS":"548.474","MEAN_MOTION_DOT":"0.00003132","MEAN_ELEMENT_THEORY":"SGP4","EPOCH":"2022-06-22T15:21:39.796416","COUNTRY_CODE":"US","PERIAPSIS":"545.925"},{"PERIOD":"95.593","INCLINATION":"53.0537","FILE":"3500001","CLASSIFICATION_TYPE":"U","ECCENTRICITY":"0.00019310","ARG_OF_PERICENTER":"70.2072","LAUNCH_DATE":"2021-04-07","CENTER_NAME":"EARTH","MEAN_MOTION":"15.06393205","RCS_SIZE":"LARGE","OBJECT_NAME":"STARLINK-2478","ELEMENT_SET_NO":"999","REF_FRAME":"TEME","MEAN_ANOMALY":"289.9125","BSTAR":"0.00034057000000","RA_OF_ASC_NODE":"144.3202","MEAN_MOTION_DOT":"0.00004794","APOAPSIS":"548.572","PERIAPSIS":"545.897","COUNTRY_CODE":"US","EPOCH":"2022-06-22T15:23:42.072288","MEAN_ELEMENT_THEORY":"SGP4","TLE_LINE2":"2 48135  53.0537 144.3202 0001931  70.2072 289.9125 15.06393205 67951","TLE_LINE1":"1 48135U 21027AV  22173.64145917  .00004794  00000-0  34057-3 0  9991","TIME_SYSTEM":"UTC","EPHEMERIS_TYPE":"0","GP_ID":"206648110","MEAN_MOTION_DDOT":"0.0000000000000","OBJECT_TYPE":"PAYLOAD","NORAD_CAT_ID":"48135","SITE":"AFETR","REV_AT_EPOCH":"6795","OBJECT_ID":"2021-027AV","DECAY_DATE":null,"SEMIMAJOR_AXIS":"6925.369"}];
